[{"OBJECT_NAME":"TIANQI-39","OBJECT_ID":"2026-010C","EPOCH":"2026-03-08T16:50:36.580128","MEAN_MOTION":14.04334884,"ECCENTRICITY":0.00155129,"INCLINATION":44.9813,"RA_OF_ASC_NODE":168.7554,"ARG_OF_PERICENTER":221.5775,"MEAN_ANOMALY":138.3881,"EPHEMERIS_TYPE":0,"CLASSIFICATION_TYPE":"U","NORAD_CAT_ID":67478,"ELEMENT_SET_NO":999,"REV_AT_EPOCH":732,"BSTAR":0.00014701681,"MEAN_MOTION_DOT":1.06e-6,"MEAN_MOTION_DDOT":0},{"OBJECT_NAME":"CZ-6A DEB","OBJECT_ID":"2022-151AU","EPOCH":"2026-03-09T12:03:17.303040","MEAN_MOTION":14.10909939,"ECCENTRICITY":0.00515672,"INCLINATION":98.8975,"RA_OF_ASC_NODE":80.0125,"ARG_OF_PERICENTER":239.4363,"MEAN_ANOMALY":120.1714,"EPHEMERIS_TYPE":0,"CLASSIFICATION_TYPE":"U","NORAD_CAT_ID":54301,"ELEMENT_SET_NO":999,"REV_AT_EPOCH":17032,"BSTAR":0.00046345014,"MEAN_MOTION_DOT":7.97e-6,"MEAN_MOTION_DDOT":0}]
